[{"OBJECT_NAME":"STARLINK-5550","OBJECT_ID":"2023-058AW","EPOCH":"2026-03-09T22:46:53.883264","MEAN_MOTION":15.01262692,"ECCENTRICITY":0.00019883,"INCLINATION":97.6042,"RA_OF_ASC_NODE":70.534,"ARG_OF_PERICENTER":85.6098,"MEAN_ANOMALY":274.5353,"EPHEMERIS_TYPE":0,"CLASSIFICATION_TYPE":"U","NORAD_CAT_ID":56361,"ELEMENT_SET_NO":999,"REV_AT_EPOCH":15817,"BSTAR":-6.9277307e-5,"MEAN_MOTION_DOT":-9.48e-6,"MEAN_MOTION_DDOT":0},{"OBJECT_NAME":"QPS-SAR-14 (YACHIHOKO-I)","OBJECT_ID":"2025-252A","EPOCH":"2026-03-09T23:58:05.760192","MEAN_MOTION":14.98763566,"ECCENTRICITY":0.00075988,"INCLINATION":42.0055,"RA_OF_ASC_NODE":316.7582,"ARG_OF_PERICENTER":330.3293,"MEAN_ANOMALY":29.71,"EPHEMERIS_TYPE":0,"CLASSIFICATION_TYPE":"U","NORAD_CAT_ID":66316,"ELEMENT_SET_NO":999,"REV_AT_EPOCH":1862,"BSTAR":0.00051193076,"MEAN_MOTION_DOT":6.093e-5,"MEAN_MOTION_DDOT":0}]
